NORAD_CAT_ID,OBJECT_NAME,OBJECT_TYPE,EPOCH,MEAN_MOTION,ECCENTRICITY,INCLINATION,RA_OF_ASC_NODE,ARG_OF_PERICENTER,MEAN_ANOMALY,BSTAR,MEAN_MOTION_DOT,MEAN_MOTION_DDOT,TLE_LINE0,TLE_LINE1,TLE_LINE2,SEMIMAJOR_AXIS,PERIOD,APOGEE,PERIGEE,DECAYED
52539.0,STARLINK-3757,PAYLOAD,2023-11-02 11:49:27,15.08853437,0.0001469,53.2179,21.7141,88.5641,271.5519,0.00040502,6.166e-05,0.0,0 STARLINK-3757,1 52539U 22051G   23306.49267566  .00006166  00000-0  40502-3 0  9996,2 52539  53.2179  21.7141 0001469  88.5641 271.5519 15.08853437 81880,6917.839,95.437,540.721,538.688,0.0
52539.0,STARLINK-3757,PAYLOAD,2023-11-03 11:40:14,15.08849033,0.0001472,53.2184,17.2536,79.8485,280.2673,0.000735,0.00011432,0.0,0 STARLINK-3757,1 52539U 22051G   23307.48627963  .00011432  00000-0  73500-3 0  9993,2 52539  53.2184  17.2536 0001472  79.8485 280.2673 15.08849033 82108,6917.853,95.437,540.736,538.699,0.0
52539.0,STARLINK-3757,PAYLOAD,2023-11-04 05:09:29,15.08848312,0.0001602,53.2177,13.9831,79.3129,280.8044,0.00077654,0.00012095,0.0,0 STARLINK-3757,1 52539U 22051G   23308.21492211  .00012095  00000-0  77654-3 0  9991,2 52539  53.2177  13.9831 0001602  79.3129 280.8044 15.08848312 82215,6917.855,95.437,540.828,538.612,0.0
52539.0,STARLINK-3757,PAYLOAD,2023-11-04 11:31:01,15.08854959,0.0001564,53.2189,12.7931,74.9078,285.2087,0.0010067,0.00015776,0.0,0 STARLINK-3757,1 52539U 22051G   23308.47988065  .00015776  00000-0  10067-2 0  9999,2 52539  53.2189  12.7931 0001564  74.9078 285.2087 15.08854959 82183,6917.835,95.437,540.782,538.618,0.0
52539.0,STARLINK-3757,PAYLOAD,2023-11-04 21:03:20,15.08848294,0.0001484,53.219,11.0106,83.3935,276.7226,0.00051722,7.955e-05,0.0,0 STARLINK-3757,1 52539U 22051G   23308.87732014  .00007955  00000-0  51722-3 0  9998,2 52539  53.2190  11.0106 0001484  83.3935 276.7226 15.08848294 82318,6917.855,95.437,540.747,538.693,0.0
52539.0,STARLINK-3757,PAYLOAD,2023-11-05 11:21:48,15.08855598,0.000162,53.2189,8.3369,94.7151,265.4026,0.00055134,8.501e-05,0.0,0 STARLINK-3757,1 52539U 22051G   23309.47347597  .00008501  00000-0  55134-3 0  9992,2 52539  53.2189   8.3369 0001620  94.7151 265.4026 15.08855598 82334,6917.833,95.437,540.818,538.577,0.0
52539.0,STARLINK-3757,PAYLOAD,2023-11-05 20:54:06,15.08871789,0.0001093,53.2186,6.5495,69.631,290.48,0.00085488,0.00013355,0.0,0 STARLINK-3757,1 52539U 22051G   23309.87090838  .00013355  00000-0  85488-3 0  9997,2 52539  53.2186   6.5495 0001093  69.6310 290.4800 15.08871789 82397,6917.783,95.436,540.404,538.892,0.0
52539.0,STARLINK-3757,PAYLOAD,2023-11-06 00:04:53,15.08848692,0.0001712,53.2181,5.9567,89.3112,270.8076,0.00013632,1.883e-05,0.0,0 STARLINK-3757,1 52539U 22051G   23310.00339362  .00001883  00000-0  13632-3 0  9997,2 52539  53.2181   5.9567 0001712  89.3112 270.8076 15.08848692 82486,6917.854,95.437,540.903,538.534,0.0
52539.0,STARLINK-3757,PAYLOAD,2023-11-06 11:12:34,15.08878179,0.0001508,53.218,3.8742,75.273,284.8429,0.0012623,0.0001988,0.0,0 STARLINK-3757,1 52539U 22051G   23310.46706474  .00019880  00000-0  12623-2 0  9993,2 52539  53.2180   3.8742 0001508  75.2730 284.8429 15.08878179 82558,6917.764,95.435,540.672,538.585,0.0
52539.0,STARLINK-3757,PAYLOAD,2023-11-06 12:47:57,15.08878098,0.0001562,53.2181,3.5764,68.2885,291.8273,0.00094554,0.00014808,0.0,0 STARLINK-3757,1 52539U 22051G   23310.53330209  .00014808  00000-0  94554-3 0  9999,2 52539  53.2181   3.5764 0001562  68.2885 291.8273 15.08878098 82491,6917.764,95.435,540.709,538.548,0.0
52539.0,STARLINK-3757,PAYLOAD,2023-11-06 20:44:55,15.0879938,0.000173,53.2185,2.0922,85.1633,274.9557,-0.0012042,-0.00019381,0.0,0 STARLINK-3757,1 52539U 22051G   23310.86452618 -.00019381  00000-0 -12042-2 0  9998,2 52539  53.2185   2.0922 0001730  85.1633 274.9557 15.08799380 82540,6918.005,95.44,541.066,538.673,0.0
52539.0,STARLINK-3757,PAYLOAD,2023-11-07 03:06:28,15.08789986,0.0001891,53.218,0.9025,87.7711,272.3498,-0.0010732,-0.00017304,0.0,0 STARLINK-3757,1 52539U 22051G   23311.12949592 -.00017304  00000-0 -10732-2 0  9997,2 52539  53.2180   0.9025 0001891  87.7711 272.3498 15.08789986 82658,6918.033,95.441,541.206,538.59,0.0
52539.0,STARLINK-3757,PAYLOAD,2023-11-07 12:38:48,15.08785527,0.0001876,53.2181,359.117,85.3452,274.7754,-0.00042218,-6.991e-05,0.0,0 STARLINK-3757,1 52539U 22051G   23311.52695205 -.00006991  00000-0 -42218-3 0  9995,2 52539  53.2181 359.1170 0001876  85.3452 274.7754 15.08785527 82645,6918.047,95.441,541.21,538.614,0.0
52539.0,STARLINK-3757,PAYLOAD,2023-11-08 02:57:17,15.08818775,9.41e-05,53.2196,356.4374,95.8855,264.2244,0.00076462,0.00011895,0.0,0 STARLINK-3757,1 52539U 22051G   23312.12311598  .00011895  00000-0  76462-3 0  9997,2 52539  53.2196 356.4374 0000941  95.8855 264.2244 15.08818775 82800,6917.945,95.439,540.461,539.159,0.0
52539.0,STARLINK-3757,PAYLOAD,2023-11-08 09:18:49,15.08846812,0.0002129,53.2179,355.2532,75.724,284.3988,0.0014632,0.0002308,0.0,0 STARLINK-3757,1 52539U 22051G   23312.38807508  .00023080  00000-0  14632-2 0  9995,2 52539  53.2179 355.2532 0002129  75.7240 284.3988 15.08846812 82844,6917.86,95.437,541.197,538.252,0.0
52539.0,STARLINK-3757,PAYLOAD,2023-11-08 12:29:35,15.08858261,0.0001785,53.2183,354.6546,87.8997,272.2199,0.0017268,0.00027315,0.0,0 STARLINK-3757,1 52539U 22051G   23312.52055006  .00027315  00000-0  17268-2 0  9992,2 52539  53.2183 354.6546 0001785  87.8997 272.2199 15.08858261 82792,6917.825,95.436,540.924,538.455,0.0
52539.0,STARLINK-3757,PAYLOAD,2023-11-09 09:09:34,15.08875691,0.0001927,53.2181,350.7888,86.6895,273.4317,0.00050982,7.843e-05,0.0,0 STARLINK-3757,1 52539U 22051G   23313.38165259  .00007843  00000-0  50982-3 0  9994,2 52539  53.2181 350.7888 0001927  86.6895 273.4317 15.08875691 82991,6917.771,95.435,540.969,538.303,0.0
52539.0,STARLINK-3757,PAYLOAD,2023-11-10 02:38:48,15.08853396,0.0001974,53.2182,347.5241,101.6419,258.4795,-0.00020563,-3.561e-05,0.0,0 STARLINK-3757,1 52539U 22051G   23314.11028910 -.00003561  00000-0 -20563-3 0  9995,2 52539  53.2182 347.5241 0001974 101.6419 258.4795 15.08853396 83106,6917.839,95.437,541.07,538.339,0.0
52539.0,STARLINK-3757,PAYLOAD,2023-11-10 09:00:21,15.08849513,0.0001816,53.2175,346.3317,92.1036,268.0164,-0.00017358,-3.05e-05,0.0,0 STARLINK-3757,1 52539U 22051G   23314.37525055 -.00003050  00000-0 -17358-3 0  9996,2 52539  53.2175 346.3317 0001816  92.1036 268.0164 15.08849513 83072,6917.851,95.437,540.973,538.46,0.0
52539.0,STARLINK-3757,PAYLOAD,2023-11-11 02:29:36,15.08841482,0.0001874,53.2172,343.061,101.0325,259.0878,1.4016e-05,-6.5e-07,0.0,0 STARLINK-3757,1 52539U 22051G   23315.10389174 -.00000065  00000-0  14016-4 0  9999,2 52539  53.2172 343.0610 0001874 101.0325 259.0878 15.08841482 83253,6917.876,95.437,541.037,538.444,0.0
52539.0,STARLINK-3757,PAYLOAD,2023-11-11 12:01:54,15.08846507,0.0001883,53.218,341.2744,107.8334,252.2864,3.7555e-05,3.1e-06,0.0,0 STARLINK-3757,1 52539U 22051G   23315.50132902  .00000310  00000-0  37555-4 0  9993,2 52539  53.2180 341.2744 0001883 107.8334 252.2864 15.08846507 83246,6917.86,95.437,541.028,538.423,0.0
52539.0,STARLINK-3757,PAYLOAD,2023-11-12 08:41:56,15.08835895,0.0001639,53.2183,337.4108,97.5265,262.5914,8.3648e-05,1.043e-05,0.0,0 STARLINK-3757,1 52539U 22051G   23316.36245576  .00001043  00000-0  83648-4 0  9998,2 52539  53.2183 337.4108 0001639  97.5265 262.5914 15.08835895 83447,6917.893,95.438,540.892,538.624,0.0
52539.0,STARLINK-3757,PAYLOAD,2023-11-13 10:08:05,15.08851702,0.0001703,53.2193,332.6527,101.1093,259.0091,0.00017213,2.453e-05,0.0,0 STARLINK-3757,1 52539U 22051G   23317.42228506  .00002453  00000-0  17213-3 0  9990,2 52539  53.2193 332.6527 0001703 101.1093 259.0091 15.08851702 83603,6917.845,95.437,540.888,538.532,0.0
52539.0,STARLINK-3757,PAYLOAD,2023-11-13 18:05:01,15.0884353,0.0001985,53.2194,331.1611,87.6825,272.4395,0.00013242,1.82e-05,0.0,0 STARLINK-3757,1 52539U 22051G   23317.75349112  .00001820  00000-0  13242-3 0  9998,2 52539  53.2194 331.1611 0001985  87.6825 272.4395 15.08843530 83656,6917.87,95.437,541.108,538.361,0.0
52539.0,STARLINK-3757,PAYLOAD,2023-11-14 09:58:53,15.08839087,0.0001676,53.2186,328.1918,87.0506,273.0678,8.1426e-05,1.008e-05,0.0,0 STARLINK-3757,1 52539U 22051G   23318.41589620  .00001008  00000-0  81426-4 0  9990,2 52539  53.2186 328.1918 0001676  87.0506 273.0678 15.08839087 83754,6917.883,95.438,540.908,538.589,0.0
52539.0,STARLINK-3757,PAYLOAD,2023-11-14 17:55:49,15.08837904,0.0001681,53.2188,326.7046,88.211,271.9074,5.0045e-05,5.08e-06,0.0,0 STARLINK-3757,1 52539U 22051G   23318.74709884  .00000508  00000-0  50045-4 0  9999,2 52539  53.2188 326.7046 0001681  88.2110 271.9074 15.08837904 83733,6917.887,95.438,540.915,538.589,0.0
52539.0,STARLINK-3757,PAYLOAD,2023-11-15 09:49:39,15.08849307,0.0001678,53.2191,323.7282,93.2805,266.8379,3.826e-05,3.21e-06,0.0,0 STARLINK-3757,1 52539U 22051G   23319.40949045  .00000321  00000-0  38260-4 0  9996,2 52539  53.2191 323.7282 0001678  93.2805 266.8379 15.08849307 83831,6917.852,95.437,540.878,538.556,0.0
52539.0,STARLINK-3757,PAYLOAD,2023-11-15 17:46:35,15.08841282,0.0001801,53.2184,322.2423,88.7428,271.377,4.9549e-05,5.01e-06,0.0,0 STARLINK-3757,1 52539U 22051G   23319.74069388  .00000501  00000-0  49549-4 0  9998,2 52539  53.2184 322.2423 0001801  88.7428 271.3770 15.08841282 83955,6917.876,95.437,540.987,538.496,0.0
52539.0,STARLINK-3757,PAYLOAD,2023-11-16 09:40:27,15.08841675,0.0001772,53.219,319.2687,93.9297,266.1897,0.00016122,2.279e-05,0.0,0 STARLINK-3757,1 52539U 22051G   23320.40309405  .00002279  00000-0  16122-3 0  9994,2 52539  53.2190 319.2687 0001772  93.9297 266.1897 15.08841675 83980,6917.875,95.437,540.966,538.514,0.0
52539.0,STARLINK-3757,PAYLOAD,2023-11-16 17:37:23,15.08840095,0.0001856,53.2182,317.782,90.3103,269.8101,8.8227e-05,1.116e-05,0.0,0 STARLINK-3757,1 52539U 22051G   23320.73429640  .00001116  00000-0  88227-4 0  9999,2 52539  53.2182 317.7820 0001856  90.3103 269.8101 15.08840095 84033,6917.88,95.438,541.029,538.461,0.0
